[{"OBJECT_NAME":"STARLINK-3586","OBJECT_ID":"2022-017AD","EPOCH":"2026-03-09T23:32:02.658912","MEAN_MOTION":15.08837334,"ECCENTRICITY":0.00014579,"INCLINATION":53.2205,"RA_OF_ASC_NODE":348.0014,"ARG_OF_PERICENTER":127.8796,"MEAN_ANOMALY":232.2328,"EPHEMERIS_TYPE":0,"CLASSIFICATION_TYPE":"U","NORAD_CAT_ID":51795,"ELEMENT_SET_NO":999,"REV_AT_EPOCH":22396,"BSTAR":-0.00017054062,"MEAN_MOTION_DOT":-3.001e-5,"MEAN_MOTION_DDOT":0},{"OBJECT_NAME":"FENGYUN 1C DEB","OBJECT_ID":"1999-025BJR","EPOCH":"2026-03-09T02:36:25.741728","MEAN_MOTION":14.62811644,"ECCENTRICITY":0.02114789,"INCLINATION":99.2365,"RA_OF_ASC_NODE":306.6158,"ARG_OF_PERICENTER":322.0995,"MEAN_ANOMALY":36.5474,"EPHEMERIS_TYPE":0,"CLASSIFICATION_TYPE":"U","NORAD_CAT_ID":31187,"ELEMENT_SET_NO":999,"REV_AT_EPOCH":70361,"BSTAR":0.0035749119,"MEAN_MOTION_DOT":0.00025231,"MEAN_MOTION_DDOT":0}]
